[{"OBJECT_NAME":"STARLINK-4427","OBJECT_ID":"2022-084X","EPOCH":"2026-03-09T21:22:01.322976","MEAN_MOTION":15.01261199,"ECCENTRICITY":0.00019367,"INCLINATION":97.603,"RA_OF_ASC_NODE":130.3993,"ARG_OF_PERICENTER":89.8126,"MEAN_ANOMALY":270.332,"EPHEMERIS_TYPE":0,"CLASSIFICATION_TYPE":"U","NORAD_CAT_ID":53210,"ELEMENT_SET_NO":999,"REV_AT_EPOCH":19988,"BSTAR":4.888818e-6,"MEAN_MOTION_DOT":5.0e-8,"MEAN_MOTION_DDOT":0},{"OBJECT_NAME":"PSLV DEB","OBJECT_ID":"2001-049QE","EPOCH":"2026-03-03T09:16:25.774752","MEAN_MOTION":14.97819767,"ECCENTRICITY":0.00185863,"INCLINATION":98.8591,"RA_OF_ASC_NODE":276.9323,"ARG_OF_PERICENTER":25.6411,"MEAN_ANOMALY":334.5725,"EPHEMERIS_TYPE":0,"CLASSIFICATION_TYPE":"U","NORAD_CAT_ID":35346,"ELEMENT_SET_NO":999,"REV_AT_EPOCH":24399,"BSTAR":0.0023148999,"MEAN_MOTION_DOT":0.00027324,"MEAN_MOTION_DDOT":0}]
